[{"OBJECT_NAME":"STARLINK-30307","OBJECT_ID":"2023-131R","EPOCH":"2026-03-09T22:00:01.999584","MEAN_MOTION":15.1030378,"ECCENTRICITY":0.00012287,"INCLINATION":42.9997,"RA_OF_ASC_NODE":170.3125,"ARG_OF_PERICENTER":287.4299,"MEAN_ANOMALY":343.9738,"EPHEMERIS_TYPE":0,"CLASSIFICATION_TYPE":"U","NORAD_CAT_ID":57747,"ELEMENT_SET_NO":999,"REV_AT_EPOCH":547,"BSTAR":0.04463956,"MEAN_MOTION_DOT":0.00797266,"MEAN_MOTION_DDOT":0},{"OBJECT_NAME":"CZ-6A DEB","OBJECT_ID":"2024-140KE","EPOCH":"2026-03-09T13:17:54.060288","MEAN_MOTION":15.16973657,"ECCENTRICITY":0.0047014,"INCLINATION":88.8608,"RA_OF_ASC_NODE":269.4441,"ARG_OF_PERICENTER":134.0266,"MEAN_ANOMALY":226.4867,"EPHEMERIS_TYPE":0,"CLASSIFICATION_TYPE":"U","NORAD_CAT_ID":60875,"ELEMENT_SET_NO":999,"REV_AT_EPOCH":8467,"BSTAR":0.004516425,"MEAN_MOTION_DOT":0.00092692,"MEAN_MOTION_DDOT":0}]
